KUIPER-00167            
1 65780U 25217U   26020.09280833  .00005784  00000+0  78714-3 0  9999
2 65780  51.8954 260.4795 0001087  90.5992 269.5095 14.79927081 17645
KUIPER-00168            
1 65781U 25217V   26020.25002315 -.01513769  00000+0 -15949+0 0  9992
2 65781  51.8957 242.7446 0000518  96.9564  45.8438 14.92233715  5268
KUIPER-00169            
1 65782U 25217W   26020.25002315 -.00049324  00000+0 -61689-2 0  9998
2 65782  51.8992 247.3351 0000987 122.8601 265.9575 14.82039738  5271
KUIPER-00170            
1 65783U 25217X   26019.83078595  .00003146  00000+0  44101-3 0  9995
2 65783  51.8981 254.1502 0001041  62.6697 297.4371 14.79978492 17713
KUIPER-00171            
1 65784U 25217Y   26020.25002315  .00093992  14492-4  28369-3 0  9992
2 65784  51.8482 219.0625 0008804 163.1738 231.8613 15.92096113  4694
KUIPER-00172            
1 65785U 25217Z   26020.25002315 -.00024187  00000+0 -11423-2 0  9992
2 65785  51.8756 241.7384 0004669 165.3521  31.3564 15.18598527  5684
KUIPER-00173            
1 65786U 25217AA  26020.25002315 -.00027174  00000+0 -33563-2 0  9991
2 65786  51.8994 247.3411 0001008  96.8060 109.2057 14.82269937  5752
KUIPER-00174            
1 65787U 25217AB  26020.25002315 -.00044230  00000+0 -43462-2 0  9993
2 65787  51.8931 242.8433 0002941 297.1461   6.8762 14.91778445  5929
